start=new Date('2022-11-02T00:00:00.000Z').valueOf();
sats=[{"FILE":"3640431","APOAPSIS":"541.634","PERIOD":"95.438","CENTER_NAME":"EARTH","NORAD_CAT_ID":"51108","RCS_SIZE":"LARGE","OBJECT_NAME":"STARLINK-3362","TIME_SYSTEM":"UTC","ELEMENT_SET_NO":"999","EPHEMERIS_TYPE":"0","CLASSIFICATION_TYPE":"U","MEAN_ANOMALY":"331.0052","RA_OF_ASC_NODE":"24.3097","MEAN_MOTION":"15.08829867","SITE":"AFETR","OBJECT_TYPE":"PAYLOAD","LAUNCH_DATE":"2022-01-19","INCLINATION":"53.2175","PERIAPSIS":"537.919","ARG_OF_PERICENTER":"29.1089","OBJECT_ID":"2022-005E","DECAY_DATE":null,"BSTAR":"0.00015176000000","MEAN_MOTION_DOT":"0.00002127","ECCENTRICITY":"0.00026850","MEAN_ELEMENT_THEORY":"SGP4","REV_AT_EPOCH":"4408","TLE_LINE2":"2 51108  53.2175  24.3097 0002685  29.1089 331.0052 15.08829867 44089","COUNTRY_CODE":"US","TLE_LINE1":"1 51108U 22005E   22305.59356011  .00002127  00000-0  15176-3 0  9991","MEAN_MOTION_DDOT":"0.0000000000000","EPOCH":"2022-11-01T14:14:43.593504","REF_FRAME":"TEME","GP_ID":"216686991","SEMIMAJOR_AXIS":"6917.911"},{"MEAN_MOTION_DOT":"0.00002178","ECCENTRICITY":"0.00028040","BSTAR":"0.00015492000000","OBJECT_ID":"2022-005F","DECAY_DATE":null,"EPOCH":"2022-11-01T14:47:52.371168","REF_FRAME":"TEME","SEMIMAJOR_AXIS":"6917.887","GP_ID":"216686244","COUNTRY_CODE":"US","TLE_LINE1":"1 51109U 22005F   22305.61657837  .00002178  00000-0  15492-3 0  9992","MEAN_MOTION_DDOT":"0.0000000000000","REV_AT_EPOCH":"4385","TLE_LINE2":"2 51109  53.2174  24.1867 0002804  27.9972 332.1171 15.08837785 43858","MEAN_ELEMENT_THEORY":"SGP4","ELEMENT_SET_NO":"999","TIME_SYSTEM":"UTC","EPHEMERIS_TYPE":"0","CLASSIFICATION_TYPE":"U","RCS_SIZE":"LARGE","OBJECT_NAME":"STARLINK-3358","NORAD_CAT_ID":"51109","PERIOD":"95.438","CENTER_NAME":"EARTH","FILE":"3640431","APOAPSIS":"541.692","PERIAPSIS":"537.812","ARG_OF_PERICENTER":"27.9972","OBJECT_TYPE":"PAYLOAD","INCLINATION":"53.2174","LAUNCH_DATE":"2022-01-19","RA_OF_ASC_NODE":"24.1867","MEAN_MOTION":"15.08837785","SITE":"AFETR","MEAN_ANOMALY":"332.1171"},{"GP_ID":"216686494","SEMIMAJOR_AXIS":"6917.875","EPOCH":"2022-11-01T17:14:53.100960","REF_FRAME":"TEME","TLE_LINE1":"1 51110U 22005G   22305.71867015  .00002971  00000-0  20466-3 0  9994","MEAN_MOTION_DDOT":"0.0000000000000","COUNTRY_CODE":"US","REV_AT_EPOCH":"4410","TLE_LINE2":"2 51110  53.2177  23.7503 0002236  31.5580 328.5546 15.08841915 44104","MEAN_ELEMENT_THEORY":"SGP4","ECCENTRICITY":"0.00022360","MEAN_MOTION_DOT":"0.00002971","BSTAR":"0.00020466000000","DECAY_DATE":null,"OBJECT_ID":"2022-005G","PERIAPSIS":"538.193","ARG_OF_PERICENTER":"31.5580","LAUNCH_DATE":"2022-01-19","INCLINATION":"53.2177","OBJECT_TYPE":"PAYLOAD","SITE":"AFETR","RA_OF_ASC_NODE":"23.7503","MEAN_MOTION":"15.08841915","MEAN_ANOMALY":"328.5546","EPHEMERIS_TYPE":"0","CLASSIFICATION_TYPE":"U","TIME_SYSTEM":"UTC","ELEMENT_SET_NO":"999","RCS_SIZE":"LARGE","OBJECT_NAME":"STARLINK-3344","PERIOD":"95.437","CENTER_NAME":"EARTH","NORAD_CAT_ID":"51110","APOAPSIS":"541.286","FILE":"3640431"},{"FILE":"3640049","APOAPSIS":"541.046","PERIOD":"95.439","CENTER_NAME":"EARTH","NORAD_CAT_ID":"51111","RCS_SIZE":"LARGE","OBJECT_NAME":"STARLINK-3173","TIME_SYSTEM":"UTC","ELEMENT_SET_NO":"999","EPHEMERIS_TYPE":"0","CLASSIFICATION_TYPE":"U","MEAN_ANOMALY":"322.9412","RA_OF_ASC_NODE":"24.7542","MEAN_MOTION":"15.08824244","SITE":"AFETR","OBJECT_TYPE":"PAYLOAD","LAUNCH_DATE":"2022-01-19","INCLINATION":"53.2189","PERIAPSIS":"538.541","ARG_OF_PERICENTER":"37.1706","OBJECT_ID":"2022-005H","DECAY_DATE":null,"BSTAR":"-0.00008018300000","MEAN_MOTION_DOT":"-0.00001563","ECCENTRICITY":"0.00018110","MEAN_ELEMENT_THEORY":"SGP4","REV_AT_EPOCH":"4517","TLE_LINE2":"2 51111  53.2189  24.7542 0001811  37.1706 322.9412 15.08824244 45176","COUNTRY_CODE":"US","TLE_LINE1":"1 51111U 22005H   22305.49418908 -.00001563  00000-0 -80183-4 0  9994","MEAN_MOTION_DDOT":"0.0000000000000","EPOCH":"2022-11-01T11:51:37.936512","REF_FRAME":"TEME","GP_ID":"216629252","SEMIMAJOR_AXIS":"6917.929"},{"MEAN_MOTION":"15.08847080","RA_OF_ASC_NODE":"23.7722","SITE":"AFETR","MEAN_ANOMALY":"332.5939","ARG_OF_PERICENTER":"27.5188","PERIAPSIS":"537.954","OBJECT_TYPE":"PAYLOAD","INCLINATION":"53.2169","LAUNCH_DATE":"2022-01-19","CENTER_NAME":"EARTH","PERIOD":"95.437","NORAD_CAT_ID":"51112","FILE":"3640431","APOAPSIS":"541.493","TIME_SYSTEM":"UTC","ELEMENT_SET_NO":"999","CLASSIFICATION_TYPE":"U","EPHEMERIS_TYPE":"0","OBJECT_NAME":"STARLINK-3374","RCS_SIZE":"LARGE","TLE_LINE2":"2 51112  53.2169  23.7722 0002558  27.5188 332.5939 15.08847080 44106","REV_AT_EPOCH":"4410","MEAN_ELEMENT_THEORY":"SGP4","REF_FRAME":"TEME","EPOCH":"2022-11-01T17:09:34.566624","SEMIMAJOR_AXIS":"6917.859","GP_ID":"216687492","COUNTRY_CODE":"US","MEAN_MOTION_DDOT":"0.0000000000000","TLE_LINE1":"1 51112U 22005J   22305.71498341  .00001608  00000-0  11912-3 0  9990","BSTAR":"0.00011912000000","OBJECT_ID":"2022-005J","DECAY_DATE":null,"MEAN_MOTION_DOT":"0.00001608","ECCENTRICITY":"0.00025580"},{"SEMIMAJOR_AXIS":"6917.890","GP_ID":"216629258","REF_FRAME":"TEME","EPOCH":"2022-11-01T12:07:33.072960","TLE_LINE1":"1 51113U 22005K   22305.50524390  .00004855  00000-0  32293-3 0  9994","MEAN_MOTION_DDOT":"0.0000000000000","COUNTRY_CODE":"US","TLE_LINE2":"2 51113  53.2188  24.6906 0002256  32.0475 328.0654 15.08836788 45172","REV_AT_EPOCH":"4517","MEAN_ELEMENT_THEORY":"SGP4","ECCENTRICITY":"0.00022560","MEAN_MOTION_DOT":"0.00004855","BSTAR":"0.00032293000000","DECAY_DATE":null,"OBJECT_ID":"2022-005K","ARG_OF_PERICENTER":"32.0475","PERIAPSIS":"538.195","INCLINATION":"53.2188","LAUNCH_DATE":"2022-01-19","OBJECT_TYPE":"PAYLOAD","SITE":"AFETR","MEAN_MOTION":"15.08836788","RA_OF_ASC_NODE":"24.6906","MEAN_ANOMALY":"328.0654","CLASSIFICATION_TYPE":"U","EPHEMERIS_TYPE":"0","TIME_SYSTEM":"UTC","ELEMENT_SET_NO":"999","OBJECT_NAME":"STARLINK-3372","RCS_SIZE":"LARGE","PERIOD":"95.438","NORAD_CAT_ID":"51113","CENTER_NAME":"EARTH","APOAPSIS":"541.316","FILE":"3640049"},{"MEAN_ELEMENT_THEORY":"SGP4","REV_AT_EPOCH":"4516","TLE_LINE2":"2 51114  53.2183  25.2210 0002235  33.8583 326.2552 15.08822777 45168","COUNTRY_CODE":"US","TLE_LINE1":"1 51114U 22005L   22305.39115560 -.00002241  00000-0 -12277-3 0  9996","MEAN_MOTION_DDOT":"0.0000000000000","EPOCH":"2022-11-01T09:23:15.843840","REF_FRAME":"TEME","SEMIMAJOR_AXIS":"6917.933","GP_ID":"216629498","OBJECT_ID":"2022-005L","DECAY_DATE":null,"BSTAR":"-0.00012277000000","MEAN_MOTION_DOT":"-0.00002241","ECCENTRICITY":"0.00022350","MEAN_ANOMALY":"326.2552","RA_OF_ASC_NODE":"25.2210","MEAN_MOTION":"15.08822777","SITE":"AFETR","OBJECT_TYPE":"PAYLOAD","INCLINATION":"53.2183","LAUNCH_DATE":"2022-01-19","PERIAPSIS":"538.252","ARG_OF_PERICENTER":"33.8583","FILE":"3640049","APOAPSIS":"541.344","CENTER_NAME":"EARTH","PERIOD":"95.439","NORAD_CAT_ID":"51114","RCS_SIZE":"LARGE","OBJECT_NAME":"STARLINK-3375","ELEMENT_SET_NO":"999","TIME_SYSTEM":"UTC","EPHEMERIS_TYPE":"0","CLASSIFICATION_TYPE":"U"},{"GP_ID":"216629266","SEMIMAJOR_AXIS":"6917.917","EPOCH":"2022-11-01T11:56:56.540832","REF_FRAME":"TEME","TLE_LINE1":"1 51115U 22005M   22305.49787663  .00001175  00000-0  91974-4 0  9992","MEAN_MOTION_DDOT":"0.0000000000000","COUNTRY_CODE":"US","REV_AT_EPOCH":"4517","TLE_LINE2":"2 51115  53.2188  24.7205 0002016  40.7831 319.3312 15.08827900 45173","MEAN_ELEMENT_THEORY":"SGP4","ECCENTRICITY":"0.00020160","MEAN_MOTION_DOT":"0.00001175","BSTAR":"0.00009197400000","DECAY_DATE":null,"OBJECT_ID":"2022-005M","PERIAPSIS":"538.388","ARG_OF_PERICENTER":"40.7831","INCLINATION":"53.2188","LAUNCH_DATE":"2022-01-19","OBJECT_TYPE":"PAYLOAD","SITE":"AFETR","RA_OF_ASC_NODE":"24.7205","MEAN_MOTION":"15.08827900","MEAN_ANOMALY":"319.3312","EPHEMERIS_TYPE":"0","CLASSIFICATION_TYPE":"U","TIME_SYSTEM":"UTC","ELEMENT_SET_NO":"999","RCS_SIZE":"LARGE","OBJECT_NAME":"STARLINK-3397","PERIOD":"95.438","CENTER_NAME":"EARTH","NORAD_CAT_ID":"51115","APOAPSIS":"541.177","FILE":"3640050"},{"OBJECT_TYPE":"PAYLOAD","INCLINATION":"53.2195","LAUNCH_DATE":"2022-01-19","PERIAPSIS":"538.175","ARG_OF_PERICENTER":"38.1073","MEAN_ANOMALY":"322.0079","RA_OF_ASC_NODE":"24.0689","MEAN_MOTION":"15.08840563","SITE":"AFETR","RCS_SIZE":"LARGE","OBJECT_NAME":"STARLINK-3243","ELEMENT_SET_NO":"999","TIME_SYSTEM":"UTC","EPHEMERIS_TYPE":"0","CLASSIFICATION_TYPE":"U","FILE":"3640431","APOAPSIS":"541.313","NORAD_CAT_ID":"51116","PERIOD":"95.438","CENTER_NAME":"EARTH","COUNTRY_CODE":"US","MEAN_MOTION_DDOT":"0.0000000000000","TLE_LINE1":"1 51116U 22005N   22305.64506069 -.00001467  00000-0 -74098-4 0  9993","EPOCH":"2022-11-01T15:28:53.243616","REF_FRAME":"TEME","SEMIMAJOR_AXIS":"6917.879","GP_ID":"216686992","MEAN_ELEMENT_THEORY":"SGP4","REV_AT_EPOCH":"4408","TLE_LINE2":"2 51116  53.2195  24.0689 0002268  38.1073 322.0079 15.08840563 44089","MEAN_MOTION_DOT":"-0.00001467","ECCENTRICITY":"0.00022680","OBJECT_ID":"2022-005N","DECAY_DATE":null,"BSTAR":"-0.00007409800000"},{"OBJECT_NAME":"STARLINK-3391","RCS_SIZE":"LARGE","ELEMENT_SET_NO":"999","TIME_SYSTEM":"UTC","CLASSIFICATION_TYPE":"U","EPHEMERIS_TYPE":"0","FILE":"3640431","APOAPSIS":"541.318","PERIOD":"95.438","NORAD_CAT_ID":"51117","CENTER_NAME":"EARTH","OBJECT_TYPE":"PAYLOAD","INCLINATION":"53.2199","LAUNCH_DATE":"2022-01-19","ARG_OF_PERICENTER":"32.9028","PERIAPSIS":"538.187","MEAN_ANOMALY":"327.2105","MEAN_MOTION":"15.08837658","RA_OF_ASC_NODE":"24.2030","SITE":"AFETR","MEAN_MOTION_DOT":"0.00001978","ECCENTRICITY":"0.00022630","OBJECT_ID":"2022-005P","DECAY_DATE":null,"BSTAR":"0.00014239000000","COUNTRY_CODE":"US","MEAN_MOTION_DDOT":"0.0000000000000","TLE_LINE1":"1 51117U 22005P   22305.61561781  .00001978  00000-0  14239-3 0  9998","REF_FRAME":"TEME","EPOCH":"2022-11-01T14:46:29.378784","SEMIMAJOR_AXIS":"6917.888","GP_ID":"216686245","MEAN_ELEMENT_THEORY":"SGP4","TLE_LINE2":"2 51117  53.2199  24.2030 0002263  32.9028 327.2105 15.08837658 44081","REV_AT_EPOCH":"4408"}];
